[{"OBJECT_NAME":"ONEWEB-0627","OBJECT_ID":"2023-004AE","EPOCH":"2026-03-09T21:20:44.660256","MEAN_MOTION":13.17650419,"ECCENTRICITY":0.00016573,"INCLINATION":87.9149,"RA_OF_ASC_NODE":25.5931,"ARG_OF_PERICENTER":63.7722,"MEAN_ANOMALY":296.358,"EPHEMERIS_TYPE":0,"CLASSIFICATION_TYPE":"U","NORAD_CAT_ID":55168,"ELEMENT_SET_NO":999,"REV_AT_EPOCH":15450,"BSTAR":-4.5827799e-5,"MEAN_MOTION_DOT":-5.0e-8,"MEAN_MOTION_DDOT":0},{"OBJECT_NAME":"CZ-4B DEB","OBJECT_ID":"2011-043D","EPOCH":"2026-03-08T12:35:01.081248","MEAN_MOTION":13.42316105,"ECCENTRICITY":0.0264063,"INCLINATION":99.5263,"RA_OF_ASC_NODE":172.3238,"ARG_OF_PERICENTER":5.7929,"MEAN_ANOMALY":55.6134,"EPHEMERIS_TYPE":0,"CLASSIFICATION_TYPE":"U","NORAD_CAT_ID":38314,"ELEMENT_SET_NO":999,"REV_AT_EPOCH":63464,"BSTAR":0.00035567044,"MEAN_MOTION_DOT":2.05e-6,"MEAN_MOTION_DDOT":0}]
